ARIANE 40 R/B           
1 20443U 90005H   26055.19322781  .00000233  00000+0  87525-4 0  9996
2 20443  98.3115 116.2549 0009107 241.5792 118.4479 14.39860434890864
DELTA 2 R/B(1)          
1 20453U 90008B   26055.27704001  .00059249  00000+0  74298-3 0  9991
2 20453  35.6034 262.7467 0088233 133.7714 227.0363 15.53959114924046
COSMOS 2058             
1 20465U 90010A   26055.27329116  .00004184  00000+0  24735-3 0  9996
2 20465  82.4674  60.6457 0010316  28.6691 331.5104 15.11186589940219
SL-14 R/B               
1 20466U 90010B   26055.13008504  .00000353  00000+0  39899-4 0  9999
2 20466  82.5001 280.1284 0019516 349.0638  11.0149 14.83555936926479
SL-14 R/B               
1 20511U 90018B   26055.06734207  .00000458  00000+0  54515-4 0  9994
2 20511  82.5182 235.8241 0017349 133.5756 226.6902 14.82127870920565
HST                     
1 20580U 90037B   26055.30445535  .00007577  00000+0  25159-3 0  9991
2 20580  28.4687 131.2938 0001204 340.4847  19.5702 15.29247409771266
SL-16 R/B               
1 20625U 90046B   26055.19507537  .00000031  00000+0  40735-4 0  9995
2 20625  71.0017 326.2545 0015781 318.1647  41.8268 14.15015191846489
COSMOS 2084             
1 20663U 90055A   26055.23938578  .00003082  00000+0  22612-3 0  9997
2 20663  62.7912  21.4475 0019184 186.8840 173.2000 15.05553712934291
SL-6 R/B(2)             
1 20666U 90055D   26055.07072177  .00002104  00000+0  16727-3 0  9990
2 20666  62.7832 300.1629 0022653 343.5222  16.5138 15.03522358936141
SL-8 R/B                
1 20775U 90078B   26055.06681248  .00015018  00000+0  44059-3 0  9997
2 20775  82.9006 263.5590 0365179  59.7005 303.9811 14.88570021807270
SL-8 R/B                
1 21088U 91006B   26054.84502339  .00000060  00000+0  44318-4 0  9995
2 21088  82.9458 180.3377 0023661  75.4238  93.0343 13.77492748762169
OKEAN-3                 
1 21397U 91039A   26055.24641541  .00003501  00000+0  24633-3 0  9998
2 21397  82.5203 349.8640 0014988  23.1970 336.9930 15.04697752863017
COSMOS 2151             
1 21422U 91042A   26055.20891237  .00001546  00000+0  12183-3 0  9990
2 21422  82.4940  96.6828 0014108 103.9207 256.3587 15.00047759861172
SL-14 R/B               
1 21423U 91042B   26054.91488320  .00000436  00000+0  52217-4 0  9993
2 21423  82.4899 233.1013 0015598 288.0674  71.8840 14.81813744851036
ERS-1                   
1 21574U 91050A   26055.28165548  .00000304  00000+0  11201-3 0  9995
2 21574  98.7891  73.1791 0031008 241.0741 118.7335 14.39437356813805
ARIANE 40 R/B           
1 21610U 91050F   26055.15646034  .00000254  00000+0  88633-4 0  9994
2 21610  98.2043 107.8990 0004330 110.4443 249.7213 14.42882431817044
INTERCOSMOS 25          
1 21819U 91086A   26055.20074776  .00001337  00000+0  25626-3 0  9993
2 21819  82.6073 318.1598 1487092 145.9899 224.6211 12.11956560495057
SL-8 R/B                
1 21876U 92008B   26055.13435153  .00000015  00000+0 -83230-6 0  9994
2 21876  82.9237 277.8639 0034817 170.5437 303.1877 13.75969954707550
SL-8 R/B                
1 21938U 92020B   26055.30662576  .00000087  00000+0  75113-4 0  9994
2 21938  82.9344 163.6949 0028286 337.5065  75.8474 13.75547757699299
USA 81                  
1 21949U 92023A   26055.24609866  .00000182  00000+0  60172-4 0  9990
2 21949  85.0109 139.1945 0002735  89.3495 270.8011 14.32362926 92869
COSMOS 2219             
1 22219U 92076A   26055.29295354  .00000358  00000+0  21259-3 0  9994
2 22219  71.0596  46.0729 0019627 224.9401 135.0134 14.14083272716486
SL-16 R/B               
1 22220U 92076B   26054.87679991  .00000240  00000+0  14347-3 0  9992
2 22220  70.9983 217.4687 0010939 121.7327  30.0448 14.16855882719875
COSMOS 2221             
1 22236U 92080A   26055.12778128  .00001675  00000+0  14634-3 0  9997
2 22236  82.5031 292.0723 0012993 235.6236 124.3758 14.96142852778769
SL-16 R/B               
1 22285U 92093B   26055.24151472  .00000177  00000+0  11525-3 0  9997
2 22285  71.0225  32.4957 0005914 308.2161  51.8428 14.15448681711254
COSMOS 2228             
1 22286U 92094A   26055.28673323  .00002424  00000+0  20719-3 0  9999
2 22286  82.5147 250.1457 0017781 351.7918   8.3011 14.97117448774053
SL-16 R/B               
1 22566U 93016B   26054.92719260  .00000109  00000+0  80600-4 0  9990
2 22566  71.0045 244.0881 0010920 333.1667  26.8890 14.15300421700223
COSMOS 2242             
1 22626U 93024A   26055.12949438  .00001704  00000+0  14747-3 0  9991
2 22626  82.5167 279.6891 0016290 356.3726   3.7375 14.96487409778369
SL-16 R/B               
1 22803U 93059B   26055.27821169  .00000239  00000+0  14171-3 0  9995
2 22803  70.9902  39.4076 0019048 234.9776 124.9561 14.17228698677638
ARIANE 40 R/B           
1 22830U 93061H   26055.22125544  .00000199  00000+0  88706-4 0  9998
2 22830  98.4946 124.3729 0009915 329.1284  30.9316 14.32853025692178
COSMOS 2278             
1 23087U 94023A   26055.16019114  .00000387  00000+0  22667-3 0  9992
2 23087  71.0524 203.4013 0007320  40.0881 320.0781 14.14369142642892
SL-16 R/B               
1 23088U 94023B   26055.28346648  .00000137  00000+0  95576-4 0  9994
2 23088  70.9990  99.0439 0005195 298.2381  61.8217 14.15012308644198
SL-16 R/B               
1 23343U 94074B   26055.06185862  .00000445  00000+0  66298-4 0  9990
2 23343  97.7129  86.4304 0005125 264.6737 149.1931 14.79389989685234
SL-16 R/B               
1 23405U 94077B   26055.27029701 -.00000074  00000+0 -13405-4 0  9996
2 23405  70.9845  20.7184 0003744 227.1630 132.9179 14.15564052614332
ARIANE 40+ R/B          
1 23561U 95021B   26055.19493587  .00000263  00000+0  97822-4 0  9990
2 23561  98.4526 126.8584 0006994 173.2669 244.3024 14.39761440617304
SL-16 R/B               
1 23705U 95058B   26054.71127381 -.00000227  00000+0 -91570-4 0  9999
2 23705  71.0203 209.6004 0011237 150.5114 209.6645 14.15494458565872
SL-16 R/B               
1 24298U 96051B   26054.86009152  .00000101  00000+0  81064-4 0  9998
2 24298  70.7584 204.5091 0016317 168.0005 192.1507 14.12411661519699
ORBVIEW 2 (SEASTAR)     
1 24883U 97037A   26054.89563385  .00000280  00000+0  11366-3 0  9994
2 24883  98.8543 218.8438 0003205  99.6284 260.5263 14.35482892506490
SL-16 R/B               
1 25400U 98043G   26055.26022070  .00000070  00000+0  48404-4 0  9992
2 25400  98.8231   8.5305 0010767  56.7124 303.5085 14.26046309437071
SL-16 R/B               
1 25407U 98045B   26055.15289156 -.00000077  00000+0 -14791-4 0  9990
2 25407  71.0104 210.0395 0006022  30.1757 329.9712 14.16191344425183
ISS (ZARYA)             
1 25544U 98067A   26055.21810240  .00011823  00000+0  22802-3 0  9997
2 25544  51.6318 138.9491 0008427 128.0072 232.1679 15.48257925554240
CZ-4B R/B               
1 25732U 99025C   26055.11283028  .00000027  00000+0  33833-4 0  9999
2 25732  98.6657  99.7142 0037485  25.5956 358.2569 14.18262341386246
OKEAN-O                 
1 25860U 99039A   26055.13318449  .00000626  00000+0  88969-4 0  9999
2 25860  97.9474 115.1605 0001617  76.5127 283.6265 14.80310959432387
SL-16 R/B               
1 25861U 99039B   26055.12583956  .00000532  00000+0  74343-4 0  9993
2 25861  97.9998 114.2408 0013607 304.5083  55.4844 14.81710264434853
DELTA 2 R/B             
1 25876U 99041E   26055.27422141  .00001715  00000+0  31363-3 0  9994
2 25876  51.7661 354.8576 0502227 308.8199  46.8893 14.11785509361133
HELIOS 1B               
1 25977U 99064A   26055.26178655  .00001766  00000+0  20062-3 0  9998
2 25977  98.1710 317.1097 0002467  92.8316 267.3182 14.87636260683261
TERRA                   
1 25994U 99068A   26055.29392660  .00000454  00000+0  10166-3 0  9995
2 25994  97.9623 109.2385 0001756 187.1876 245.0683 14.60998729393123
SL-16 R/B               
1 26070U 00006B   26055.30609672  .00000231  00000+0  14170-3 0  9993
2 26070  71.0020 125.9800 0017619 208.6087 151.4071 14.15819903346662
TITAN 4B R/B            
1 26474U 00047B   26055.24551633  .00003403  00000+0  21716-3 0  9990
2 26474  67.9884  78.3123 0037761  51.5678 308.8851 15.09424320390888
ENVISAT                 
1 27386U 02009A   26054.83491742  .00000130  00000+0  56103-4 0  9994
2 27386  98.3704   8.7643 0001355  86.2641 283.6329 14.39031167257189
IDEFIX & ARIANE 42P R/B 
1 27422U 02021B   26055.28094026  .00000285  00000+0  12475-3 0  9997
2 27422  98.5858 354.0488 0010878 223.6090 136.4234 14.31015482242101
AQUA                    
1 27424U 02022A   26055.27877483  .00001081  00000+0  22575-3 0  9992
2 27424  98.4150  22.4021 0000925  48.5118  59.0006 14.61939902266774
CZ-4B R/B               
1 27432U 02024C   26055.13114942  .00000023  00000+0  34466-4 0  9990
2 27432  98.8872 108.6042 0051028  62.2489 323.2269 14.14544903227328
MIDORI II (ADEOS-II)    
1 27597U 02056A   26055.29273365  .00000256  00000+0  11832-3 0  9998
2 27597  98.7744  13.6800 0002001  61.7674 298.3709 14.29273506208381
H-2A R/B                
1 27601U 02056E   26055.32073420  .00000281  00000+0  11319-3 0  9996
2 27601  98.3177  16.1974 0069668 200.5637 285.2545 14.33750614212199
CZ-4B R/B               
1 28059U 03049C   26055.24881182  .00000423  00000+0  10884-3 0  9994
2 28059  98.6867  49.6279 0046992 272.8948  86.6870 14.55004792184642
CZ-2C R/B               
1 28222U 04012C   26055.16989357  .00048840  00000+0  53901-3 0  9993
2 28222  97.7264 119.1976 0014090   3.8799 356.2565 15.62819312202168
SL-16 R/B               
1 28353U 04021B   26054.80950677  .00000146  00000+0  10098-3 0  9998
2 28353  70.9990 261.6233 0003368  41.2671 318.8706 14.14598804120876
CZ-4B R/B               
1 28415U 04035C   26055.09980975  .00008631  00000+0  30627-3 0  9995
2 28415  97.3528  89.5067 0032674  20.2292 340.0234 15.28787034177837
CZ-2C R/B               
1 28480U 04046B   26055.23306710  .00000119  00000+0  59524-4 0  9995
2 28480  98.1989 331.0536 0139058 194.2055 165.5199 14.26987096106589
